{
  "type": "FeatureCollection",
  "features": [
    {
      "type": "Feature",
      "properties": {
        "norad_id": 15362,
        "name": "NOVA 3",
        "group": "nnss",
        "lat": 22.335223874162352,
        "lon": 80.3890203964078,
        "alt_km": 1151.9125615951289,
        "timestamp": "2025-12-04T15:47:54.366437+00:00",
        "meta_object_name": "NOVA 3",
        "meta_object_id": "1984-110A",
        "meta_epoch": "2025-12-04T06:52:42.007584",
        "meta_mean_motion": 13.23042925,
        "meta_eccentricity": 0.00311858,
        "meta_inclination": 90.1225,
        "meta_ra_of_asc_node": 80.435,
        "meta_arg_of_pericenter": 355.6972,
        "meta_mean_anomaly": 57.3469,
        "meta_ephemeris_type": 0,
        "meta_classification_type": "U",
        "meta_norad_cat_id": 15362,
        "meta_element_set_no": 999,
        "meta_rev_at_epoch": 98587,
        "meta_bstar": 0.00010339977,
        "meta_mean_motion_dot": 5.2e-07,
        "meta_mean_motion_ddot": 0,
        "tle_line1": "1 15362U 84110A   25338.28659731  .00000052  00000+0  10340-3 0  9990",
        "tle_line2": "2 15362  90.1225  80.4350 0031185 355.6972  57.3469 13.23042925985875"
      },
      "geometry": {
        "type": "Point",
        "coordinates": [
          80.3890203964078,
          22.335223874162352
        ]
      }
    },
    {
      "type": "Feature",
      "properties": {
        "norad_id": 15935,
        "name": "OSCAR 30",
        "group": "nnss",
        "lat": 83.62863832537225,
        "lon": 98.23899497989873,
        "alt_km": 999.0707847988024,
        "timestamp": "2025-12-04T15:47:54.366448+00:00",
        "meta_object_name": "OSCAR 30",
        "meta_object_id": "1985-066A",
        "meta_epoch": "2025-12-04T06:44:34.611360",
        "meta_mean_motion": 13.36076281,
        "meta_eccentricity": 0.01693598,
        "meta_inclination": 90.1647,
        "meta_ra_of_asc_node": 99.7089,
        "meta_arg_of_pericenter": 107.5138,
        "meta_mean_anomaly": 323.1138,
        "meta_ephemeris_type": 0,
        "meta_classification_type": "U",
        "meta_norad_cat_id": 15935,
        "meta_element_set_no": 999,
        "meta_rev_at_epoch": 96340,
        "meta_bstar": 0.00025897485,
        "meta_mean_motion_dot": 1.54e-06,
        "meta_mean_motion_ddot": 0,
        "tle_line1": "1 15935U 85066A   25338.28095615  .00000154  00000+0  25897-3 0  9998",
        "tle_line2": "2 15935  90.1647  99.7089 0169359 107.5138 323.1138 13.36076281963402"
      },
      "geometry": {
        "type": "Point",
        "coordinates": [
          98.23899497989873,
          83.62863832537225
        ]
      }
    },
    {
      "type": "Feature",
      "properties": {
        "norad_id": 15936,
        "name": "OSCAR 24",
        "group": "nnss",
        "lat": 14.490096148513052,
        "lon": -87.79132614223332,
        "alt_km": 1046.1765527977996,
        "timestamp": "2025-12-04T15:47:54.366458+00:00",
        "meta_object_name": "OSCAR 24",
        "meta_object_id": "1985-066B",
        "meta_epoch": "2025-12-04T08:04:07.846752",
        "meta_mean_motion": 13.35933904,
        "meta_eccentricity": 0.01703747,
        "meta_inclination": 90.1787,
        "meta_ra_of_asc_node": 92.1568,
        "meta_arg_of_pericenter": 113.7971,
        "meta_mean_anomaly": 302.043,
        "meta_ephemeris_type": 0,
        "meta_classification_type": "U",
        "meta_norad_cat_id": 15936,
        "meta_element_set_no": 999,
        "meta_rev_at_epoch": 96531,
        "meta_bstar": 0.00020194951,
        "meta_mean_motion_dot": 1.22e-06,
        "meta_mean_motion_ddot": 0,
        "tle_line1": "1 15936U 85066B   25338.33620193  .00000122  00000+0  20195-3 0  9991",
        "tle_line2": "2 15936  90.1787  92.1568 0170374 113.7971 302.0430 13.35933904965316"
      },
      "geometry": {
        "type": "Point",
        "coordinates": [
          -87.79132614223332,
          14.490096148513052
        ]
      }
    },
    {
      "type": "Feature",
      "properties": {
        "norad_id": 17070,
        "name": "POLAR BEAR",
        "group": "nnss",
        "lat": -62.179178752468,
        "lon": -176.62759215516513,
        "alt_km": 1014.9922493506865,
        "timestamp": "2025-12-04T15:47:54.366469+00:00",
        "meta_object_name": "POLAR BEAR",
        "meta_object_id": "1986-088A",
        "meta_epoch": "2025-12-04T02:42:26.523936",
        "meta_mean_motion": 13.75248152,
        "meta_eccentricity": 0.00403525,
        "meta_inclination": 89.618,
        "meta_ra_of_asc_node": 184.1187,
        "meta_arg_of_pericenter": 144.3671,
        "meta_mean_anomaly": 334.4415,
        "meta_ephemeris_type": 0,
        "meta_classification_type": "U",
        "meta_norad_cat_id": 17070,
        "meta_element_set_no": 999,
        "meta_rev_at_epoch": 95860,
        "meta_bstar": 0.0001702677,
        "meta_mean_motion_dot": 1.76e-06,
        "meta_mean_motion_ddot": 0,
        "tle_line1": "1 17070U 86088A   25338.11280699  .00000176  00000+0  17027-3 0  9995",
        "tle_line2": "2 17070  89.6180 184.1187 0040352 144.3671 334.4415 13.75248152958609"
      },
      "geometry": {
        "type": "Point",
        "coordinates": [
          -176.62759215516513,
          -62.179178752468
        ]
      }
    },
    {
      "type": "Feature",
      "properties": {
        "norad_id": 18361,
        "name": "OSCAR 27",
        "group": "nnss",
        "lat": -2.3075558324051157,
        "lon": 78.98498079747945,
        "alt_km": 1120.4432199544472,
        "timestamp": "2025-12-04T15:47:54.366479+00:00",
        "meta_object_name": "OSCAR 27",
        "meta_object_id": "1987-080A",
        "meta_epoch": "2025-12-04T06:52:55.454016",
        "meta_mean_motion": 13.44903963,
        "meta_eccentricity": 0.01024196,
        "meta_inclination": 90.3742,
        "meta_ra_of_asc_node": 78.956,
        "meta_arg_of_pericenter": 248.3486,
        "meta_mean_anomaly": 110.6729,
        "meta_ephemeris_type": 0,
        "meta_classification_type": "U",
        "meta_norad_cat_id": 18361,
        "meta_element_set_no": 999,
        "meta_rev_at_epoch": 87443,
        "meta_bstar": 0.00026493883,
        "meta_mean_motion_dot": 1.68e-06,
        "meta_mean_motion_ddot": 0,
        "tle_line1": "1 18361U 87080A   25338.28675294  .00000168  00000+0  26494-3 0  9998",
        "tle_line2": "2 18361  90.3742  78.9560 0102419 248.3486 110.6729 13.44903963874437"
      },
      "geometry": {
        "type": "Point",
        "coordinates": [
          78.98498079747945,
          -2.3075558324051157
        ]
      }
    },
    {
      "type": "Feature",
      "properties": {
        "norad_id": 18362,
        "name": "OSCAR 29",
        "group": "nnss",
        "lat": 23.209642510772255,
        "lon": 79.26710403503547,
        "alt_km": 1121.404718913066,
        "timestamp": "2025-12-04T15:47:54.366490+00:00",
        "meta_object_name": "OSCAR 29",
        "meta_object_id": "1987-080B",
        "meta_epoch": "2025-12-04T07:01:08.237280",
        "meta_mean_motion": 13.44445999,
        "meta_eccentricity": 0.01037142,
        "meta_inclination": 90.3755,
        "meta_ra_of_asc_node": 79.4145,
        "meta_arg_of_pericenter": 271.7522,
        "meta_mean_anomaly": 140.9753,
        "meta_ephemeris_type": 0,
        "meta_classification_type": "U",
        "meta_norad_cat_id": 18362,
        "meta_element_set_no": 999,
        "meta_rev_at_epoch": 87396,
        "meta_bstar": 0.0002287377,
        "meta_mean_motion_dot": 1.45e-06,
        "meta_mean_motion_ddot": 0,
        "tle_line1": "1 18362U 87080B   25338.29245645  .00000145  00000+0  22874-3 0  9996",
        "tle_line2": "2 18362  90.3755  79.4145 0103714 271.7522 140.9753 13.44445999873967"
      },
      "geometry": {
        "type": "Point",
        "coordinates": [
          79.26710403503547,
          23.209642510772255
        ]
      }
    },
    {
      "type": "Feature",
      "properties": {
        "norad_id": 19070,
        "name": "OSCAR 23",
        "group": "nnss",
        "lat": -76.24425392065956,
        "lon": 17.45910182687173,
        "alt_km": 1138.5544697180221,
        "timestamp": "2025-12-04T15:47:54.366500+00:00",
        "meta_object_name": "OSCAR 23",
        "meta_object_id": "1988-033A",
        "meta_epoch": "2025-12-04T03:51:34.326144",
        "meta_mean_motion": 13.27785161,
        "meta_eccentricity": 0.01888138,
        "meta_inclination": 90.3222,
        "meta_ra_of_asc_node": 16.1265,
        "meta_arg_of_pericenter": 203.814,
        "meta_mean_anomaly": 221.3732,
        "meta_ephemeris_type": 0,
        "meta_classification_type": "U",
        "meta_norad_cat_id": 19070,
        "meta_element_set_no": 999,
        "meta_rev_at_epoch": 82139,
        "meta_bstar": 0.00022567432,
        "meta_mean_motion_dot": 1.2e-06,
        "meta_mean_motion_ddot": 0,
        "tle_line1": "1 19070U 88033A   25338.16081396  .00000120  00000+0  22567-3 0  9991",
        "tle_line2": "2 19070  90.3222  16.1265 0188813 203.8140 221.3732 13.27785161821399"
      },
      "geometry": {
        "type": "Point",
        "coordinates": [
          17.45910182687173,
          -76.24425392065956
        ]
      }
    }
  ]
}